HULIANWANG DIGUI-28     
1 63695U 25086J   26202.24053040  .00000047  00000+0  75300-4 0  9999
2 63695  86.5020 301.4601 0002190 109.5687 250.5684 13.24411294 59369
HULIANWANG DIGUI-29     
1 63696U 25086K   26202.23300793  .00000053  00000+0  89131-4 0  9993
2 63696  86.5048 301.5799 0002069 112.5647 247.5706 13.24411628 59366
HULIANWANG DIGUI-30     
1 64283U 25121A   26202.24045509  .00000056  00000+0  97216-4 0  9994
2 64283  86.5002   2.0657 0001914  89.0222 271.1132 13.24409610 54662
HULIANWANG DIGUI-31     
1 64284U 25121B   26202.23292968  .00000058  00000+0  99952-4 0  9998
2 64284  86.5023   2.1460 0001899  89.4555 270.6797 13.24414608 54668
HULIANWANG DIGUI-32     
1 64285U 25121C   26202.22524970  .00000036  00000+0  49656-4 0  9991
2 64285  86.4964   1.9000 0001895  93.9376 266.1975 13.24410417 54668
HULIANWANG DIGUI-33     
1 64286U 25121D   26202.21770229  .00000034  00000+0  44335-4 0  9998
2 64286  86.5022   2.1346 0001916  89.8424 270.2929 13.24410076 54669
HULIANWANG DIGUI-34     
1 64287U 25121E   26202.13463339  .00000035  00000+0  47759-4 0  9995
2 64287  86.4999   2.0648 0002035  81.3842 278.7523 13.24410806 54653
HULIANWANG DIGUI-35     
1 64956U 25159A   26202.24811494  .00000007  00000+0 -18407-4 0  9998
2 64956  86.4934 270.9237 0004182  54.3696 305.7827 13.24413470 47635
HULIANWANG DIGUI-36     
1 64957U 25159B   26202.24422387  .00000007  00000+0 -18189-4 0  9995
2 64957  86.4953 270.9919 0001679 104.3195 255.8125 13.24408896 47634
HULIANWANG DIGUI-37     
1 64958U 25159C   26202.23665016  .00000020  00000+0  12096-4 0  9998
2 64958  86.4894 270.7785 0001779  99.0637 261.0698 13.24409627 47637
HULIANWANG DIGUI-38     
1 64959U 25159D   26202.22913248  .00000032  00000+0  41130-4 0  9995
2 64959  86.4953 270.9848 0001842  99.2751 260.8591 13.24409301 47634
HULIANWANG DIGUI-39     
1 64960U 25159E   26202.22156548  .00000050  00000+0  82864-4 0  9998
2 64960  86.4929 270.8950 0001831 102.2814 257.8525 13.24409205 47631
HULIANWANG DIGUI-40     
1 65043U 25162A   26202.22240729 -.00000084  00000+0  87071-4 0  9993
2 65043  49.9987 143.8599 0000268 347.0944  12.9921 13.29327590 47873
HULIANWANG DIGUI-41     
1 65044U 25162B   26202.21407267 -.00000082  00000+0  90716-4 0  9993
2 65044  49.9997 143.8444 0000268 359.9333   0.1539 13.29327147 47881
HULIANWANG DIGUI-42     
1 65045U 25162C   26202.28082919 -.00000078  00000+0  98370-4 0  9993
2 65045  49.9962 143.4333 0000267 351.0325   9.0542 13.29327818 47898
HULIANWANG DIGUI-43     
1 65046U 25162D   26202.27251978 -.00000080  00000+0  94133-4 0  9992
2 65046  49.9980 143.4397 0000324 345.1152  14.9710 13.29326408 47891
