{"fetched_at":"2026-07-21T17:53:31.607Z","source":"https://celestrak.org/NORAD/elements/gp.php?NAME=HULIANWANG&FORMAT=JSON","constellation":"guowang","records":[{"OBJECT_NAME":"HULIANWANG DIGUI-28","OBJECT_ID":"2025-086J","EPOCH":"2026-07-21T05:46:21.826560","CLASSIFICATION_TYPE":"U","MEAN_MOTION":13.24411294,"ECCENTRICITY":0.000219,"INCLINATION":86.502,"RA_OF_ASC_NODE":301.4601,"ARG_OF_PERICENTER":109.5687,"MEAN_ANOMALY":250.5684,"EPHEMERIS_TYPE":0,"NORAD_CAT_ID":63695,"ELEMENT_SET_NO":999,"REV_AT_EPOCH":5936,"BSTAR":0.0000753002,"MEAN_MOTION_DOT":4.7e-7,"MEAN_MOTION_DDOT":0},{"OBJECT_NAME":"HULIANWANG DIGUI-29","OBJECT_ID":"2025-086K","EPOCH":"2026-07-21T05:35:31.885152","CLASSIFICATION_TYPE":"U","MEAN_MOTION":13.24411628,"ECCENTRICITY":0.0002069,"INCLINATION":86.5048,"RA_OF_ASC_NODE":301.5799,"ARG_OF_PERICENTER":112.5647,"MEAN_ANOMALY":247.5706,"EPHEMERIS_TYPE":0,"NORAD_CAT_ID":63696,"ELEMENT_SET_NO":999,"REV_AT_EPOCH":5936,"BSTAR":0.00008913051,"MEAN_MOTION_DOT":5.3e-7,"MEAN_MOTION_DDOT":0},{"OBJECT_NAME":"HULIANWANG DIGUI-30","OBJECT_ID":"2025-121A","EPOCH":"2026-07-21T05:46:15.319776","CLASSIFICATION_TYPE":"U","MEAN_MOTION":13.2440961,"ECCENTRICITY":0.00019149,"INCLINATION":86.5002,"RA_OF_ASC_NODE":2.0657,"ARG_OF_PERICENTER":89.0222,"MEAN_ANOMALY":271.1132,"EPHEMERIS_TYPE":0,"NORAD_CAT_ID":64283,"ELEMENT_SET_NO":999,"REV_AT_EPOCH":5466,"BSTAR":0.000097215675,"MEAN_MOTION_DOT":5.6e-7,"MEAN_MOTION_DDOT":0},{"OBJECT_NAME":"HULIANWANG DIGUI-31","OBJECT_ID":"2025-121B","EPOCH":"2026-07-21T05:35:25.124352","CLASSIFICATION_TYPE":"U","MEAN_MOTION":13.24414608,"ECCENTRICITY":0.00018999,"INCLINATION":86.5023,"RA_OF_ASC_NODE":2.146,"ARG_OF_PERICENTER":89.4555,"MEAN_ANOMALY":270.6797,"EPHEMERIS_TYPE":0,"NORAD_CAT_ID":64284,"ELEMENT_SET_NO":999,"REV_AT_EPOCH":5466,"BSTAR":0.000099952207,"MEAN_MOTION_DOT":5.8e-7,"MEAN_MOTION_DDOT":0},{"OBJECT_NAME":"HULIANWANG DIGUI-32","OBJECT_ID":"2025-121C","EPOCH":"2026-07-21T05:24:21.574080","CLASSIFICATION_TYPE":"U","MEAN_MOTION":13.24410417,"ECCENTRICITY":0.0001895,"INCLINATION":86.4964,"RA_OF_ASC_NODE":1.9,"ARG_OF_PERICENTER":93.9376,"MEAN_ANOMALY":266.1975,"EPHEMERIS_TYPE":0,"NORAD_CAT_ID":64285,"ELEMENT_SET_NO":999,"REV_AT_EPOCH":5466,"BSTAR":0.00004965583,"MEAN_MOTION_DOT":3.6e-7,"MEAN_MOTION_DDOT":0},{"OBJECT_NAME":"HULIANWANG DIGUI-33","OBJECT_ID":"2025-121D","EPOCH":"2026-07-21T05:13:29.477856","CLASSIFICATION_TYPE":"U","MEAN_MOTION":13.24410076,"ECCENTRICITY":0.00019167,"INCLINATION":86.5022,"RA_OF_ASC_NODE":2.1346,"ARG_OF_PERICENTER":89.8424,"MEAN_ANOMALY":270.2929,"EPHEMERIS_TYPE":0,"NORAD_CAT_ID":64286,"ELEMENT_SET_NO":999,"REV_AT_EPOCH":5466,"BSTAR":0.000044335051,"MEAN_MOTION_DOT":3.4e-7,"MEAN_MOTION_DDOT":0},{"OBJECT_NAME":"HULIANWANG DIGUI-34","OBJECT_ID":"2025-121E","EPOCH":"2026-07-21T03:13:52.324896","CLASSIFICATION_TYPE":"U","MEAN_MOTION":13.24410806,"ECCENTRICITY":0.00020359,"INCLINATION":86.4999,"RA_OF_ASC_NODE":2.0648,"ARG_OF_PERICENTER":81.3842,"MEAN_ANOMALY":278.7523,"EPHEMERIS_TYPE":0,"NORAD_CAT_ID":64287,"ELEMENT_SET_NO":999,"REV_AT_EPOCH":5465,"BSTAR":0.000047759324,"MEAN_MOTION_DOT":3.5e-7,"MEAN_MOTION_DDOT":0},{"OBJECT_NAME":"HULIANWANG DIGUI-35","OBJECT_ID":"2025-159A","EPOCH":"2026-07-21T05:57:17.130816","CLASSIFICATION_TYPE":"U","MEAN_MOTION":13.2441347,"ECCENTRICITY":0.00041823,"INCLINATION":86.4934,"RA_OF_ASC_NODE":270.9237,"ARG_OF_PERICENTER":54.3696,"MEAN_ANOMALY":305.7827,"EPHEMERIS_TYPE":0,"NORAD_CAT_ID":64956,"ELEMENT_SET_NO":999,"REV_AT_EPOCH":4763,"BSTAR":-0.000018406956,"MEAN_MOTION_DOT":7e-8,"MEAN_MOTION_DDOT":0},{"OBJECT_NAME":"HULIANWANG DIGUI-36","OBJECT_ID":"2025-159B","EPOCH":"2026-07-21T05:51:40.942368","CLASSIFICATION_TYPE":"U","MEAN_MOTION":13.24408896,"ECCENTRICITY":0.00016791,"INCLINATION":86.4953,"RA_OF_ASC_NODE":270.9919,"ARG_OF_PERICENTER":104.3195,"MEAN_ANOMALY":255.8125,"EPHEMERIS_TYPE":0,"NORAD_CAT_ID":64957,"ELEMENT_SET_NO":999,"REV_AT_EPOCH":4763,"BSTAR":-0.000018188655,"MEAN_MOTION_DOT":7e-8,"MEAN_MOTION_DDOT":0},{"OBJECT_NAME":"HULIANWANG DIGUI-37","OBJECT_ID":"2025-159C","EPOCH":"2026-07-21T05:40:46.573824","CLASSIFICATION_TYPE":"U","MEAN_MOTION":13.24409627,"ECCENTRICITY":0.00017793,"INCLINATION":86.4894,"RA_OF_ASC_NODE":270.7785,"ARG_OF_PERICENTER":99.0637,"MEAN_ANOMALY":261.0698,"EPHEMERIS_TYPE":0,"NORAD_CAT_ID":64958,"ELEMENT_SET_NO":999,"REV_AT_EPOCH":4763,"BSTAR":0.000012095706,"MEAN_MOTION_DOT":2e-7,"MEAN_MOTION_DDOT":0},{"OBJECT_NAME":"HULIANWANG DIGUI-38","OBJECT_ID":"2025-159D","EPOCH":"2026-07-21T05:29:57.046272","CLASSIFICATION_TYPE":"U","MEAN_MOTION":13.24409301,"ECCENTRICITY":0.00018423,"INCLINATION":86.4953,"RA_OF_ASC_NODE":270.9848,"ARG_OF_PERICENTER":99.2751,"MEAN_ANOMALY":260.8591,"EPHEMERIS_TYPE":0,"NORAD_CAT_ID":64959,"ELEMENT_SET_NO":999,"REV_AT_EPOCH":4763,"BSTAR":0.000041130027,"MEAN_MOTION_DOT":3.2e-7,"MEAN_MOTION_DDOT":0},{"OBJECT_NAME":"HULIANWANG DIGUI-39","OBJECT_ID":"2025-159E","EPOCH":"2026-07-21T05:19:03.257472","CLASSIFICATION_TYPE":"U","MEAN_MOTION":13.24409205,"ECCENTRICITY":0.00018312,"INCLINATION":86.4929,"RA_OF_ASC_NODE":270.895,"ARG_OF_PERICENTER":102.2814,"MEAN_ANOMALY":257.8525,"EPHEMERIS_TYPE":0,"NORAD_CAT_ID":64960,"ELEMENT_SET_NO":999,"REV_AT_EPOCH":4763,"BSTAR":0.000082863711,"MEAN_MOTION_DOT":5e-7,"MEAN_MOTION_DDOT":0},{"OBJECT_NAME":"HULIANWANG DIGUI-40","OBJECT_ID":"2025-162A","EPOCH":"2026-07-21T05:20:15.989856","CLASSIFICATION_TYPE":"U","MEAN_MOTION":13.2932759,"ECCENTRICITY":0.0000268,"INCLINATION":49.9987,"RA_OF_ASC_NODE":143.8599,"ARG_OF_PERICENTER":347.0944,"MEAN_ANOMALY":12.9921,"EPHEMERIS_TYPE":0,"NORAD_CAT_ID":65043,"ELEMENT_SET_NO":999,"REV_AT_EPOCH":4787,"BSTAR":0.000087070647,"MEAN_MOTION_DOT":-8.4e-7,"MEAN_MOTION_DDOT":0},{"OBJECT_NAME":"HULIANWANG DIGUI-41","OBJECT_ID":"2025-162B","EPOCH":"2026-07-21T05:08:15.878688","CLASSIFICATION_TYPE":"U","MEAN_MOTION":13.29327147,"ECCENTRICITY":0.00002689,"INCLINATION":49.9997,"RA_OF_ASC_NODE":143.8444,"ARG_OF_PERICENTER":359.9333,"MEAN_ANOMALY":0.1539,"EPHEMERIS_TYPE":0,"NORAD_CAT_ID":65044,"ELEMENT_SET_NO":999,"REV_AT_EPOCH":4788,"BSTAR":0.000090716347,"MEAN_MOTION_DOT":-8.2e-7,"MEAN_MOTION_DDOT":0},{"OBJECT_NAME":"HULIANWANG DIGUI-42","OBJECT_ID":"2025-162C","EPOCH":"2026-07-21T06:44:23.642016","CLASSIFICATION_TYPE":"U","MEAN_MOTION":13.29327818,"ECCENTRICITY":0.00002675,"INCLINATION":49.9962,"RA_OF_ASC_NODE":143.4333,"ARG_OF_PERICENTER":351.0325,"MEAN_ANOMALY":9.0542,"EPHEMERIS_TYPE":0,"NORAD_CAT_ID":65045,"ELEMENT_SET_NO":999,"REV_AT_EPOCH":4789,"BSTAR":0.000098370155,"MEAN_MOTION_DOT":-7.8e-7,"MEAN_MOTION_DDOT":0},{"OBJECT_NAME":"HULIANWANG DIGUI-43","OBJECT_ID":"2025-162D","EPOCH":"2026-07-21T06:32:25.708992","CLASSIFICATION_TYPE":"U","MEAN_MOTION":13.29326408,"ECCENTRICITY":0.00003249,"INCLINATION":49.998,"RA_OF_ASC_NODE":143.4397,"ARG_OF_PERICENTER":345.1152,"MEAN_ANOMALY":14.971,"EPHEMERIS_TYPE":0,"NORAD_CAT_ID":65046,"ELEMENT_SET_NO":999,"REV_AT_EPOCH":4789,"BSTAR":0.000094133419,"MEAN_MOTION_DOT":-8e-7,"MEAN_MOTION_DDOT":0}]}
